<?xml version="1.0" encoding="UTF-8"?>
<ndm xmlns:xsi="http://www.w3.org/2001/XMLSchema-instance" xsi:noNamespaceSchemaLocation="https://sanaregistry.org/r/ndmxml_unqualified/ndmxml-2.0.0-master-2.0.xsd">
<omm id="CCSDS_OMM_VERS" version="2.0">
<header><CREATION_DATE/><ORIGINATOR/></header><body><segment><metadata><OBJECT_NAME>ORBCOMM FM33 [-]</OBJECT_NAME><OBJECT_ID>1999-065D</OBJECT_ID><CENTER_NAME>EARTH</CENTER_NAME><REF_FRAME>TEME</REF_FRAME><TIME_SYSTEM>UTC</TIME_SYSTEM><MEAN_ELEMENT_THEORY>SGP4</MEAN_ELEMENT_THEORY></metadata><data><meanElements><EPOCH>2024-02-14T10:45:12.321792</EPOCH><MEAN_MOTION>14.37305776</MEAN_MOTION><ECCENTRICITY>.0008415</ECCENTRICITY><INCLINATION>45.0283</INCLINATION><RA_OF_ASC_NODE>157.4716</RA_OF_ASC_NODE><ARG_OF_PERICENTER>134.8172</ARG_OF_PERICENTER><MEAN_ANOMALY>344.8641</MEAN_ANOMALY></meanElements><tleParameters><EPHEMERIS_TYPE>0</EPHEMERIS_TYPE><CLASSIFICATION_TYPE>U</CLASSIFICATION_TYPE><NORAD_CAT_ID>25983</NORAD_CAT_ID><ELEMENT_SET_NO>999</ELEMENT_SET_NO><REV_AT_EPOCH>26576</REV_AT_EPOCH><BSTAR>.11313E-2</BSTAR><MEAN_MOTION_DOT>.3266E-4</MEAN_MOTION_DOT><MEAN_MOTION_DDOT>0</MEAN_MOTION_DDOT></tleParameters></data></segment></body></omm>
<omm id="CCSDS_OMM_VERS" version="2.0">
<header><CREATION_DATE/><ORIGINATOR/></header><body><segment><metadata><OBJECT_NAME>ORBCOMM FM36 [-]</OBJECT_NAME><OBJECT_ID>1999-065E</OBJECT_ID><CENTER_NAME>EARTH</CENTER_NAME><REF_FRAME>TEME</REF_FRAME><TIME_SYSTEM>UTC</TIME_SYSTEM><MEAN_ELEMENT_THEORY>SGP4</MEAN_ELEMENT_THEORY></metadata><data><meanElements><EPOCH>2024-02-13T20:23:24.418752</EPOCH><MEAN_MOTION>14.35172921</MEAN_MOTION><ECCENTRICITY>.0003207</ECCENTRICITY><INCLINATION>45.0387</INCLINATION><RA_OF_ASC_NODE>244.3150</RA_OF_ASC_NODE><ARG_OF_PERICENTER>6.7901</ARG_OF_PERICENTER><MEAN_ANOMALY>353.2990</MEAN_ANOMALY></meanElements><tleParameters><EPHEMERIS_TYPE>0</EPHEMERIS_TYPE><CLASSIFICATION_TYPE>U</CLASSIFICATION_TYPE><NORAD_CAT_ID>25984</NORAD_CAT_ID><ELEMENT_SET_NO>999</ELEMENT_SET_NO><REV_AT_EPOCH>26405</REV_AT_EPOCH><BSTAR>.85981E-3</BSTAR><MEAN_MOTION_DOT>.2339E-4</MEAN_MOTION_DOT><MEAN_MOTION_DDOT>0</MEAN_MOTION_DDOT></tleParameters></data></segment></body></omm>
<omm id="CCSDS_OMM_VERS" version="2.0">
<header><CREATION_DATE/><ORIGINATOR/></header><body><segment><metadata><OBJECT_NAME>ORBCOMM FM35 [+]</OBJECT_NAME><OBJECT_ID>1999-065F</OBJECT_ID><CENTER_NAME>EARTH</CENTER_NAME><REF_FRAME>TEME</REF_FRAME><TIME_SYSTEM>UTC</TIME_SYSTEM><MEAN_ELEMENT_THEORY>SGP4</MEAN_ELEMENT_THEORY></metadata><data><meanElements><EPOCH>2024-02-13T20:50:25.661184</EPOCH><MEAN_MOTION>14.34815621</MEAN_MOTION><ECCENTRICITY>.0003364</ECCENTRICITY><INCLINATION>45.0386</INCLINATION><RA_OF_ASC_NODE>246.6204</RA_OF_ASC_NODE><ARG_OF_PERICENTER>109.2414</ARG_OF_PERICENTER><MEAN_ANOMALY>250.8797</MEAN_ANOMALY></meanElements><tleParameters><EPHEMERIS_TYPE>0</EPHEMERIS_TYPE><CLASSIFICATION_TYPE>U</CLASSIFICATION_TYPE><NORAD_CAT_ID>25985</NORAD_CAT_ID><ELEMENT_SET_NO>999</ELEMENT_SET_NO><REV_AT_EPOCH>26445</REV_AT_EPOCH><BSTAR>.78695E-3</BSTAR><MEAN_MOTION_DOT>.2112E-4</MEAN_MOTION_DOT><MEAN_MOTION_DDOT>0</MEAN_MOTION_DDOT></tleParameters></data></segment></body></omm>
<omm id="CCSDS_OMM_VERS" version="2.0">
<header><CREATION_DATE/><ORIGINATOR/></header><body><segment><metadata><OBJECT_NAME>ORBCOMM FM34 [-]</OBJECT_NAME><OBJECT_ID>1999-065G</OBJECT_ID><CENTER_NAME>EARTH</CENTER_NAME><REF_FRAME>TEME</REF_FRAME><TIME_SYSTEM>UTC</TIME_SYSTEM><MEAN_ELEMENT_THEORY>SGP4</MEAN_ELEMENT_THEORY></metadata><data><meanElements><EPOCH>2024-02-13T23:25:00.215616</EPOCH><MEAN_MOTION>14.34772483</MEAN_MOTION><ECCENTRICITY>.0003764</ECCENTRICITY><INCLINATION>45.0381</INCLINATION><RA_OF_ASC_NODE>246.6273</RA_OF_ASC_NODE><ARG_OF_PERICENTER>56.2192</ARG_OF_PERICENTER><MEAN_ANOMALY>303.9013</MEAN_ANOMALY></meanElements><tleParameters><EPHEMERIS_TYPE>0</EPHEMERIS_TYPE><CLASSIFICATION_TYPE>U</CLASSIFICATION_TYPE><NORAD_CAT_ID>25986</NORAD_CAT_ID><ELEMENT_SET_NO>999</ELEMENT_SET_NO><REV_AT_EPOCH>26462</REV_AT_EPOCH><BSTAR>.78719E-3</BSTAR><MEAN_MOTION_DOT>.2111E-4</MEAN_MOTION_DOT><MEAN_MOTION_DDOT>0</MEAN_MOTION_DDOT></tleParameters></data></segment></body></omm>
<omm id="CCSDS_OMM_VERS" version="2.0">
<header><CREATION_DATE/><ORIGINATOR/></header><body><segment><metadata><OBJECT_NAME>ORBCOMM FM38 [-]</OBJECT_NAME><OBJECT_ID>2008-031A</OBJECT_ID><CENTER_NAME>EARTH</CENTER_NAME><REF_FRAME>TEME</REF_FRAME><TIME_SYSTEM>UTC</TIME_SYSTEM><MEAN_ELEMENT_THEORY>SGP4</MEAN_ELEMENT_THEORY></metadata><data><meanElements><EPOCH>2024-02-14T04:32:04.547328</EPOCH><MEAN_MOTION>14.76935932</MEAN_MOTION><ECCENTRICITY>.0004577</ECCENTRICITY><INCLINATION>48.4402</INCLINATION><RA_OF_ASC_NODE>117.4789</RA_OF_ASC_NODE><ARG_OF_PERICENTER>106.6278</ARG_OF_PERICENTER><MEAN_ANOMALY>253.5138</MEAN_ANOMALY></meanElements><tleParameters><EPHEMERIS_TYPE>0</EPHEMERIS_TYPE><CLASSIFICATION_TYPE>U</CLASSIFICATION_TYPE><NORAD_CAT_ID>33060</NORAD_CAT_ID><ELEMENT_SET_NO>999</ELEMENT_SET_NO><REV_AT_EPOCH>84235</REV_AT_EPOCH><BSTAR>.6219E-3</BSTAR><MEAN_MOTION_DOT>.4219E-4</MEAN_MOTION_DOT><MEAN_MOTION_DDOT>0</MEAN_MOTION_DDOT></tleParameters></data></segment></body></omm>
<omm id="CCSDS_OMM_VERS" version="2.0">
<header><CREATION_DATE/><ORIGINATOR/></header><body><segment><metadata><OBJECT_NAME>ORBCOMM FM41 [-]</OBJECT_NAME><OBJECT_ID>2008-031B</OBJECT_ID><CENTER_NAME>EARTH</CENTER_NAME><REF_FRAME>TEME</REF_FRAME><TIME_SYSTEM>UTC</TIME_SYSTEM><MEAN_ELEMENT_THEORY>SGP4</MEAN_ELEMENT_THEORY></metadata><data><meanElements><EPOCH>2024-02-13T23:31:38.449632</EPOCH><MEAN_MOTION>14.76675890</MEAN_MOTION><ECCENTRICITY>.0003727</ECCENTRICITY><INCLINATION>48.4437</INCLINATION><RA_OF_ASC_NODE>124.8863</RA_OF_ASC_NODE><ARG_OF_PERICENTER>89.2858</ARG_OF_PERICENTER><MEAN_ANOMALY>80.8494</MEAN_ANOMALY></meanElements><tleParameters><EPHEMERIS_TYPE>0</EPHEMERIS_TYPE><CLASSIFICATION_TYPE>U</CLASSIFICATION_TYPE><NORAD_CAT_ID>33061</NORAD_CAT_ID><ELEMENT_SET_NO>999</ELEMENT_SET_NO><REV_AT_EPOCH>84227</REV_AT_EPOCH><BSTAR>.64733E-3</BSTAR><MEAN_MOTION_DOT>.4372E-4</MEAN_MOTION_DOT><MEAN_MOTION_DDOT>0</MEAN_MOTION_DDOT></tleParameters></data></segment></body></omm>
<omm id="CCSDS_OMM_VERS" version="2.0">
<header><CREATION_DATE/><ORIGINATOR/></header><body><segment><metadata><OBJECT_NAME>ORBCOMM FM29 [-]</OBJECT_NAME><OBJECT_ID>2008-031C</OBJECT_ID><CENTER_NAME>EARTH</CENTER_NAME><REF_FRAME>TEME</REF_FRAME><TIME_SYSTEM>UTC</TIME_SYSTEM><MEAN_ELEMENT_THEORY>SGP4</MEAN_ELEMENT_THEORY></metadata><data><meanElements><EPOCH>2024-02-13T23:08:19.124736</EPOCH><MEAN_MOTION>14.76588550</MEAN_MOTION><ECCENTRICITY>.0005594</ECCENTRICITY><INCLINATION>48.4390</INCLINATION><RA_OF_ASC_NODE>132.9868</RA_OF_ASC_NODE><ARG_OF_PERICENTER>87.4561</ARG_OF_PERICENTER><MEAN_ANOMALY>82.6871</MEAN_ANOMALY></meanElements><tleParameters><EPHEMERIS_TYPE>0</EPHEMERIS_TYPE><CLASSIFICATION_TYPE>U</CLASSIFICATION_TYPE><NORAD_CAT_ID>33062</NORAD_CAT_ID><ELEMENT_SET_NO>999</ELEMENT_SET_NO><REV_AT_EPOCH>84213</REV_AT_EPOCH><BSTAR>.71606E-3</BSTAR><MEAN_MOTION_DOT>.4849E-4</MEAN_MOTION_DOT><MEAN_MOTION_DDOT>0</MEAN_MOTION_DDOT></tleParameters></data></segment></body></omm>
<omm id="CCSDS_OMM_VERS" version="2.0">
<header><CREATION_DATE/><ORIGINATOR/></header><body><segment><metadata><OBJECT_NAME>ORBCOMM FM39 [-]</OBJECT_NAME><OBJECT_ID>2008-031D</OBJECT_ID><CENTER_NAME>EARTH</CENTER_NAME><REF_FRAME>TEME</REF_FRAME><TIME_SYSTEM>UTC</TIME_SYSTEM><MEAN_ELEMENT_THEORY>SGP4</MEAN_ELEMENT_THEORY></metadata><data><meanElements><EPOCH>2024-02-13T23:26:44.105568</EPOCH><MEAN_MOTION>14.75664289</MEAN_MOTION><ECCENTRICITY>.0006612</ECCENTRICITY><INCLINATION>48.4400</INCLINATION><RA_OF_ASC_NODE>152.8159</RA_OF_ASC_NODE><ARG_OF_PERICENTER>61.7080</ARG_OF_PERICENTER><MEAN_ANOMALY>298.4500</MEAN_ANOMALY></meanElements><tleParameters><EPHEMERIS_TYPE>0</EPHEMERIS_TYPE><CLASSIFICATION_TYPE>U</CLASSIFICATION_TYPE><NORAD_CAT_ID>33063</NORAD_CAT_ID><ELEMENT_SET_NO>999</ELEMENT_SET_NO><REV_AT_EPOCH>84187</REV_AT_EPOCH><BSTAR>.63551E-3</BSTAR><MEAN_MOTION_DOT>.4185E-4</MEAN_MOTION_DOT><MEAN_MOTION_DDOT>0</MEAN_MOTION_DDOT></tleParameters></data></segment></body></omm>

</ndm>
