ORBCOMM FM33 [-]        
1 25983U 99065D   24045.44805928  .00003266  00000+0  11313-2 0  9998
2 25983  45.0283 157.4716 0008415 134.8172 344.8641 14.37305776265765
ORBCOMM FM36 [-]        
1 25984U 99065E   24044.84958818  .00002339  00000+0  85981-3 0  9992
2 25984  45.0387 244.3150 0003207   6.7901 353.2990 14.35172921264054
ORBCOMM FM35 [+]        
1 25985U 99065F   24044.86835256  .00002112  00000+0  78695-3 0  9998
2 25985  45.0386 246.6204 0003364 109.2414 250.8797 14.34815621264452
ORBCOMM FM34 [-]        
1 25986U 99065G   24044.97569694  .00002111  00000+0  78719-3 0  9997
2 25986  45.0381 246.6273 0003764  56.2192 303.9013 14.34772483264620
ORBCOMM FM38 [-]        
1 33060U 08031A   24045.18894152  .00004219  00000+0  62190-3 0  9993
2 33060  48.4402 117.4789 0004577 106.6278 253.5138 14.76935932842354
ORBCOMM FM41 [-]        
1 33061U 08031B   24044.98030613  .00004372  00000+0  64733-3 0  9990
2 33061  48.4437 124.8863 0003727  89.2858  80.8494 14.76675890842275
ORBCOMM FM29 [-]        
1 33062U 08031C   24044.96411024  .00004849  00000+0  71606-3 0  9994
2 33062  48.4390 132.9868 0005594  87.4561  82.6871 14.76588550842134
ORBCOMM FM39 [-]        
1 33063U 08031D   24044.97689937  .00004185  00000+0  63551-3 0  9999
2 33063  48.4400 152.8159 0006612  61.7080 298.4500 14.75664289841873
